ONEWEB-0158             
1 48054U 21025N   25306.42378507 -.00000295  00000+0 -84186-3 0  9990
2 48054  87.9033   5.2765 0001887 108.9386 251.1948 13.13471599223861
ONEWEB-0157             
1 48055U 21025P   25306.44918973  .00000156  00000+0  39172-3 0  9999
2 48055  87.9034   5.2782 0002107  89.5105 270.6265 13.13471779223803
ONEWEB-0162             
1 48056U 21025Q   25306.42534936 -.00000217  00000+0 -63024-3 0  9994
2 48056  87.9037   5.2837 0001757  94.8798 265.2532 13.13469494223779
ONEWEB-0155             
1 48057U 21025R   25306.20372919 -.00000287  00000+0 -82084-3 0  9996
2 48057  87.9031   5.3335 0002030  98.7764 261.3595 13.13469080223888
ONEWEB-0149             
1 48058U 21025S   25306.45425677  .00000280  00000+0  73251-3 0  9991
2 48058  87.9031   5.2779 0001675  94.3971 265.7349 13.13472154223720
ONEWEB-0148             
1 48059U 21025T   25306.41702196 -.00000181  00000+0 -53156-3 0  9996
2 48059  87.9031   5.3077 0001568  80.5614 279.5693 13.13469918223847
ONEWEB-0160             
1 48060U 21025U   25306.43393615  .00000374  00000+0  98993-3 0  9992
2 48060  87.9026   5.3015 0001947 122.4438 237.6879 13.13465995223792
ONEWEB-0163             
1 48061U 21025V   25306.41871428 -.00000203  00000+0 -59201-3 0  9996
2 48061  87.9037   5.2879 0002063  93.0759 267.0606 13.13469729223919
